SatCatId,ObjectName,LaunchYear,OrbitalPeriod,LaunchMass,StatusCode,Inclination,Status,UcsData,OrbitClassEstimated,LaunchSiteCountry,Owner,UseType,Purpose,LaunchVehicleClass,TLE1,TLE2,MeanMotion,Eccentricity,OrbitClass
51742,STARLINK-3521,2022,95.44,260.0,+,53.22,Active,1,LEO,USA,USA,Commercial,Communications,Falcon,1 51742U 22016AE  23276.49790965  .00022214  00000+0  14093-2 0  9998,2 51742  53.2173 346.5628 0001516  77.5562 282.5600 15.08843779 89474,15.08843779,0.0001516,LEO
51743,STARLINK-3512,2022,95.44,260.0,+,53.22,Active,1,LEO,USA,USA,Commercial,Communications,Falcon,1 51743U 22016AF  23276.43255556  .00007810  00000+0  50815-3 0  9993,2 51743  53.2161 336.5822 0001533  96.1871 263.9296 15.08848506 89608,15.08848506,0.0001533,LEO
51744,STARLINK-3452,2022,95.44,260.0,+,53.22,Active,1,LEO,USA,USA,Commercial,Communications,Falcon,1 51744U 22016AG  23276.47580599  .00003516  00000+0  23887-3 0  9994,2 51744  53.2187 346.4957 0001611  85.9799 274.1377 15.08843445 89474,15.08843445,0.0001611,LEO
51745,STARLINK-3449,2022,95.44,260.0,+,53.22,Active,1,LEO,USA,USA,Commercial,Communications,Falcon,1 51745U 22016AH  23276.48684421  .00008858  00000+0  57376-3 0  9999,2 51745  53.2186 346.4198 0001599  73.3437 286.7730 15.08850439 89479,15.08850439,0.0001599,LEO
51746,STARLINK-3502,2022,95.44,260.0,+,53.22,Active,1,LEO,USA,USA,Commercial,Communications,Falcon,1 51746U 22016AJ  23276.43720622  .00021021  00000+0  13342-2 0  9990,2 51746  53.2152 336.6530 0001674  76.6715 283.4463 15.08859668 89608,15.08859668,0.0001674,LEO
51747,STARLINK-3446,2022,95.44,260.0,+,53.22,Active,1,LEO,USA,USA,Commercial,Communications,Falcon,1 51747U 22016AK  23276.48045730  .00017686  00000+0  11259-2 0  9993,2 51747  53.2166 346.4923 0001572  77.5513 282.5655 15.08860661 89475,15.08860661,0.0001572,LEO
51748,STARLINK-3501,2022,95.44,260.0,+,53.22,Active,1,LEO,USA,USA,Commercial,Communications,Falcon,1 51748U 22016AL  23276.49512718  .00022625  00000+0  14343-2 0  9996,2 51748  53.2156 336.3853 0001621  77.0087 283.1086 15.08860309 89611,15.08860309,0.0001621,LEO
51749,STARLINK-3451,2022,95.44,260.0,+,53.22,Active,1,LEO,USA,USA,Commercial,Communications,Falcon,1 51749U 22016AM  23276.52366747  .00016696  00000+0  10642-2 0  9999,2 51749  53.2160 346.4371 0001588  74.8234 285.2934 15.08855275 89470,15.08855275,0.0001588,LEO
51750,STARLINK-3505,2022,95.44,260.0,+,53.22,Active,1,LEO,USA,USA,Commercial,Communications,Falcon,1 51750U 22016AN  23276.48872444  .00018040  00000+0  11482-2 0  9990,2 51750  53.2156 336.4218 0001576  70.0928 290.0233 15.08854638 89615,15.08854638,0.0001576,LEO
51751,STARLINK-3506,2022,95.44,260.0,+,53.22,Active,1,LEO,USA,USA,Commercial,Communications,Falcon,1 51751U 22016AP  23276.43352042  .00000980  00000+0  79661-4 0  9992,2 51751  53.2153 336.6712 0001448  92.0433 268.0725 15.08844856 89608,15.08844856,0.0001448,LEO
51752,STARLINK-3511,2022,95.44,260.0,+,53.22,Active,1,LEO,USA,USA,Commercial,Communications,Falcon,1 51752U 22016AQ  23276.47767496  .00014368  00000+0  91864-3 0  9993,2 51752  53.2168 336.3976 0001572  91.8786 268.2387 15.08853526 89611,15.08853526,0.0001572,LEO
51753,STARLINK-3507,2022,95.44,260.0,+,53.22,Active,1,LEO,USA,USA,Commercial,Communications,Falcon,1 51753U 22016AR  23276.49240129  .00002026  00000+0  14530-3 0  9998,2 51753  53.2166 336.4040 0001591  88.0156 272.1019 15.08848950 89614,15.0884895,0.0001591,LEO
51754,STARLINK-3457,2022,95.44,260.0,+,53.22,Active,1,LEO,USA,USA,Commercial,Communications,Falcon,1 51754U 22016AS  23276.45461596  .00015856  00000+0  10116-2 0  9998,2 51754  53.2171 336.3234 0001646  75.4725 284.6450 15.08857268 89617,15.08857268,0.0001646,LEO
51755,STARLINK-3460,2022,95.44,260.0,+,53.22,Active,1,LEO,USA,USA,Commercial,Communications,Falcon,1 51755U 22016AT  23276.48040588  .00016249  00000+0  10362-2 0  9996,2 51755  53.2157 336.4517 0001471  93.9013 266.2147 15.08855567 89617,15.08855567,0.0001471,LEO
51756,STARLINK-3513,2022,95.44,260.0,+,53.22,Active,1,LEO,USA,USA,Commercial,Communications,Falcon,1 51756U 22016AU  23276.45096575  .00009857  00000+0  63643-3 0  9999,2 51756  53.2162 336.5807 0001581  85.8119 274.3054 15.08847546 89611,15.08847546,0.0001581,LEO
51757,STARLINK-3459,2022,95.44,260.0,+,53.22,Active,1,LEO,USA,USA,Commercial,Communications,Falcon,1 51757U 22016AV  23276.44823597 -.00002471  00000+0 -13723-3 0  9992,2 51757  53.2177 336.6019 0001328  92.8881 267.2263 15.08829597 89616,15.08829597,0.0001328,LEO
51758,STARLINK-3458,2022,95.44,260.0,+,53.22,Active,1,LEO,USA,USA,Commercial,Communications,Falcon,1 51758U 22016AW  23276.43991891  .00007588  00000+0  49420-3 0  9990,2 51758  53.2156 336.5807 0001528  89.1790 270.9377 15.08847391 90754,15.08847391,0.0001528,LEO
51759,STARLINK-3456,2022,95.44,260.0,+,53.22,Active,1,LEO,USA,USA,Commercial,Communications,Falcon,1 51759U 22016AX  23276.44360821  .00017427  00000+0  11098-2 0  9997,2 51759  53.2164 336.6134 0001708  83.3258 276.7928 15.08857047 89611,15.08857047,0.0001708,LEO
51768,STARLINK-3622,2022,95.44,260.0,+,53.22,Active,1,LEO,USA,USA,Commercial,Communications,Falcon,1 51768U 22017A   23276.54019873  .00006320  00000+0  41466-3 0  9990,2 51768  53.2183   6.1813 0001398  92.6166 267.4986 15.08855856 89966,15.08855856,0.0001398,LEO
51769,STARLINK-3621,2022,95.44,260.0,+,53.22,Active,1,LEO,USA,USA,Commercial,Communications,Falcon,1 51769U 22017B   23276.53284747  .00015972  00000+0  10190-2 0  9996,2 51769  53.2183   6.2143 0001780  77.3535 282.7656 15.08852489 88523,15.08852489,0.000178,LEO
51770,STARLINK-3612,2022,95.44,260.0,+,53.22,Active,1,LEO,USA,USA,Commercial,Communications,Falcon,1 51770U 22017C   23276.53651932  .00002337  00000+0  16482-3 0  9994,2 51770  53.2195   6.1962 0001641  85.9553 274.1627 15.08849559 88535,15.08849559,0.0001641,LEO
51771,STARLINK-3614,2022,95.44,260.0,+,53.22,Active,1,LEO,USA,USA,Commercial,Communications,Falcon,1 51771U 22017D   23276.53011864  .00008821  00000+0  57139-3 0  9997,2 51771  53.2182   6.2271 0001449  93.1009 267.0149 15.08854393 88520,15.08854393,0.0001449,LEO
51772,STARLINK-3623,2022,95.44,260.0,+,53.22,Active,1,LEO,USA,USA,Commercial,Communications,Falcon,1 51772U 22017E   23276.52180626  .00034591  00000+0  21794-2 0  9990,2 51772  53.2169   6.2607 0001430  69.4805 290.6340 15.08864491 88513,15.08864491,0.000143,LEO
51773,STARLINK-3624,2022,95.44,260.0,+,53.22,Active,1,LEO,USA,USA,Commercial,Communications,Falcon,1 51773U 22017F   23276.52916381  .00008657  00000+0  56117-3 0  9998,2 51773  53.2182   6.2268 0001542  81.0761 279.0406 15.08849204 88527,15.08849204,0.0001542,LEO
51774,STARLINK-3629,2022,95.44,260.0,+,53.22,Active,1,LEO,USA,USA,Commercial,Communications,Falcon,1 51774U 22017G   23276.51444741  .00011278  00000+0  72542-3 0  9997,2 51774  53.2181   6.2951 0001677  83.7911 276.3273 15.08845715 88481,15.08845715,0.0001677,LEO
51775,STARLINK-3620,2022,95.44,260.0,+,53.22,Active,1,LEO,USA,USA,Commercial,Communications,Falcon,1 51775U 22017H   23276.52548867 -.00001556  00000+0 -79692-4 0  9997,2 51775  53.2215   6.2448 0001597  76.8251 283.2919 15.08835451 88527,15.08835451,0.0001597,LEO
51776,STARLINK-3608,2022,95.44,260.0,+,53.22,Active,1,LEO,USA,USA,Commercial,Communications,Falcon,1 51776U 22017J   23276.57700402  .00010259  00000+0  66153-3 0  9993,2 51776  53.2180   6.0146 0001518  83.1030 277.0135 15.08850462 88497,15.08850462,0.0001518,LEO
51777,STARLINK-3625,2022,95.44,260.0,+,53.22,Active,1,LEO,USA,USA,Commercial,Communications,Falcon,1 51777U 22017K   23276.51539184  .00001783  00000+0  13005-3 0  9995,2 51777  53.2177   6.2619 0001477  87.3352 272.7809 15.08850118 88519,15.08850118,0.0001477,LEO
51778,STARLINK-3615,2022,95.44,260.0,+,53.22,Active,1,LEO,USA,USA,Commercial,Communications,Falcon,1 51778U 22017L   23276.51903135  .00018685  00000+0  11885-2 0  9999,2 51778  53.2178 356.1486 0001209  86.0785 274.0345 15.08855211 88473,15.08855211,0.0001209,LEO
51779,STARLINK-3611,2022,95.44,260.0,+,53.22,Active,1,LEO,USA,USA,Commercial,Communications,Falcon,1 51779U 22017M   23276.57796856  .00021943  00000+0  13918-2 0  9996,2 51779  53.2166   6.0602 0001615  74.9844 285.1326 15.08858101 88490,15.08858101,0.0001615,LEO
51780,STARLINK-3617,2022,95.44,260.0,+,53.22,Active,1,LEO,USA,USA,Commercial,Communications,Falcon,1 51780U 22017N   23276.56228420  .00021011  00000+0  13337-2 0  9995,2 51780  53.2176   6.0733 0001511  74.9080 285.2079 15.08856288 88349,15.08856288,0.0001511,LEO
51781,STARLINK-3580,2022,95.44,260.0,+,53.22,Active,1,LEO,USA,USA,Commercial,Communications,Falcon,1 51781U 22017P   23276.56595938  .00003954  00000+0  26636-3 0  9990,2 51781  53.2174   6.0269 0001647  81.1770 278.9409 15.08843262 88342,15.08843262,0.0001647,LEO
51782,STARLINK-3616,2022,95.44,260.0,+,53.22,Active,1,LEO,USA,USA,Commercial,Communications,Falcon,1 51782U 22017Q   23276.58807757  .00001513  00000+0  11312-3 0  9992,2 51782  53.2178  15.9731 0001341  73.4506 286.6634 15.08846145 88116,15.08846145,0.0001341,LEO
51783,STARLINK-3628,2022,95.44,260.0,+,53.22,Active,1,LEO,USA,USA,Commercial,Communications,Falcon,1 51783U 22017R   23276.57060338  .00002820  00000+0  19517-3 0  9995,2 51783  53.2176   6.0934 0001436  82.1473 277.9682 15.08849962 88347,15.08849962,0.0001436,LEO
51784,STARLINK-3632,2022,95.44,260.0,+,53.22,Active,1,LEO,USA,USA,Commercial,Communications,Falcon,1 51784U 22017S   23276.58344334  .00006975  00000+0  45578-3 0  9999,2 51784  53.2181  15.9865 0001549  80.8777 279.2390 15.08849990 88200,15.0884999,0.0001549,LEO
51785,STARLINK-3646,2022,95.44,260.0,+,53.22,Active,1,LEO,USA,USA,Commercial,Communications,Falcon,1 51785U 22017T   23276.55954731  .00000171  00000+0  28837-4 0  9997,2 51785  53.2173   6.0649 0001291  80.9251 279.1887 15.08859441 88342,15.08859441,0.0001291,LEO
